ZHONGXING-6B            
1 31800U 07031A   17345.77407035 -.00000368  00000-0  00000-0 0  9994
2 31800   0.0172 337.5062 0004043 277.7089 219.6395  1.00272977 38260
